NORAD_CAT_ID,OBJECT_NAME,OBJECT_TYPE,EPOCH,MEAN_MOTION,ECCENTRICITY,INCLINATION,RA_OF_ASC_NODE,ARG_OF_PERICENTER,MEAN_ANOMALY,BSTAR,MEAN_MOTION_DOT,MEAN_MOTION_DDOT,TLE_LINE0,TLE_LINE1,TLE_LINE2,SEMIMAJOR_AXIS,PERIOD,APOGEE,PERIGEE,DECAYED
52098.0,STARLINK-3665,PAYLOAD,2022-07-12 22:00:00,15.08872694,0.0001361999999999,53.2196,325.6367,73.9026,167.3219,6.9514e-06,-1.77e-06,0.0,0 STARLINK-3665,1 52098U 22029L   22193.91667824 -.00000177  00000-0  69514-5 0  9995,2 52098  53.2196 325.6367 0001362  73.9026 167.3219 15.08872694  1306,6917.78,95.435,540.5880000000002,538.703,0.0
52098.0,STARLINK-3665,PAYLOAD,2022-07-13 14:00:01,15.08843551,0.0001524,53.2197,322.6441,80.3413,184.1237,-0.0022757,-0.00036327,0.0,0 STARLINK-3665,1 52098U 22029L   22194.58334491 -.00036327  00000-0 -22757-2 0  9992,2 52098  53.2197 322.6441 0001524  80.3413 184.1237 15.08843551 19091,6917.87,95.437,540.789,538.68,0.0
52098.0,STARLINK-3665,PAYLOAD,2022-07-13 22:00:00,15.088231099999998,0.0001439,53.2193,321.148,75.8911,200.1551,-0.0011564,-0.00018636,0.0,0 STARLINK-3665,1 52098U 22029L   22194.91667824 -.00018636  00000-0 -11564-2 0  9995,2 52098  53.2193 321.1480 0001439  75.8911 200.1551 15.08823110  1303,6917.932,95.439,540.793,538.802,0.0
52098.0,STARLINK-3665,PAYLOAD,2022-07-14 04:00:00,15.08793742,0.0001356,53.2195,320.0245,83.686,111.0412,0.0025527,0.0004052,0.0,0 STARLINK-3665,1 52098U 22029L   22195.16667824  .00040520  00000-0  25527-2 0  9992,2 52098  53.2195 320.0245 0001356  83.6860 111.0412 15.08793742 19188,6918.022,95.44,540.825,538.9490000000002,0.0
52098.0,STARLINK-3665,PAYLOAD,2022-07-14 14:00:01,15.08825932,0.000145,53.2194,318.1557,78.7241,220.4492,-0.00069581,-0.0001134,0.0,0 STARLINK-3665,1 52098U 22029L   22195.58334491 -.00011340  00000-0 -69581-3 0  9998,2 52098  53.2194 318.1557 0001450  78.7241 220.4492 15.08825932  1309,6917.9230000000025,95.438,540.7909999999998,538.785,0.0
52098.0,STARLINK-3665,PAYLOAD,2022-07-14 22:00:00,15.08842909,0.0001392,53.2192,316.6595,74.3565,236.3905,-0.00071326,-0.00011622,0.0,0 STARLINK-3665,1 52098U 22029L   22195.91667824 -.00011622  00000-0 -71326-3 0  9997,2 52098  53.2192 316.6595 0001392  74.3565 236.3905 15.08842909 19293,6917.871,95.437,540.6990000000002,538.774,0.0
52098.0,STARLINK-3665,PAYLOAD,2022-07-15 14:00:01,15.08859485,0.000143,53.2193,313.6672,76.0156,257.9224,-0.0011702,-0.00018873,0.0,0 STARLINK-3665,1 52098U 22029L   22196.58334491 -.00018873  00000-0 -11702-2 0  9998,2 52098  53.2193 313.6672 0001430  76.0156 257.9224 15.08859485 19396,6917.821,95.436,540.675,538.697,0.0
52098.0,STARLINK-3665,PAYLOAD,2022-07-15 22:00:00,15.08866513,0.0001317,53.2192,312.1707,71.5159,274.0352,-0.0026442,-0.00042154,0.0,0 STARLINK-3665,1 52098U 22029L   22196.91667824 -.00042154  00000-0 -26442-2 0  9990,2 52098  53.2192 312.1707 0001317  71.5159 274.0352 15.08866513  1309,6917.799,95.436,540.575,538.753,0.0
52098.0,STARLINK-3665,PAYLOAD,2022-07-16 14:00:01,15.08845127,0.0001446,53.2193,309.1785,72.9205,295.8496,-0.0012477,-0.00020093,0.0,0 STARLINK-3665,1 52098U 22029L   22197.58334491 -.00020093  00000-0 -12477-2 0  9996,2 52098  53.2193 309.1785 0001446  72.9205 295.8496 15.08845127 19556,6917.865,95.437,540.73,538.729,0.0
52098.0,STARLINK-3665,PAYLOAD,2022-07-16 22:00:00,15.08873266,0.0001368,53.2192,307.6819,69.8862,310.4770000000001,-0.0027016,-0.00043066,0.0,0 STARLINK-3665,1 52098U 22029L   22197.91667824 -.00043066  00000-0 -27016-2 0  9992,2 52098  53.2192 307.6819 0001368  69.8862 310.4770 15.08873266  1301,6917.779,95.435,540.59,538.697,0.0
52098.0,STARLINK-3665,PAYLOAD,2022-07-17 06:00:00,15.08820597,0.0001289,53.2194,306.1842,78.7262,313.2621,0.0029691999999999,0.00047259,0.0,0 STARLINK-3665,1 52098U 22029L   22198.25001157  .00047259  00000-0  29692-2 0  9999,2 52098  53.2194 306.1842 0001289  78.7262 313.2621 15.08820597 19650,6917.94,95.439,540.696,538.913,0.0
52098.0,STARLINK-3665,PAYLOAD,2022-07-17 14:00:01,15.08850371,0.0001409,53.2194,304.6897,69.8023,333.7527,-0.0025281,-0.00040309,0.0,0 STARLINK-3665,1 52098U 22029L   22198.58334491 -.00040309  00000-0 -25281-2 0  9996,2 52098  53.2194 304.6897 0001409  69.8023 333.7527 15.08850371 19704,6917.849,95.437,540.688,538.739,0.0
52098.0,STARLINK-3665,PAYLOAD,2022-07-17 22:00:00,15.08848793,0.0001439,53.2193,303.1929,70.1358,345.0107,-0.004434,-0.00070184,0.0,0 STARLINK-3665,1 52098U 22029L   22198.91667824 -.00070184  00000-0 -44340-2 0  9993,2 52098  53.2193 303.1929 0001439  70.1358 345.0107 15.08848793  1304,6917.854,95.437,540.714,538.7230000000002,0.0
52098.0,STARLINK-3665,PAYLOAD,2022-07-18 06:00:00,15.08791428,0.0001472,53.2195,301.6955,80.5713,346.155,0.0027537,0.00043751,0.0,0 STARLINK-3665,1 52098U 22029L   22199.25001157  .00043751  00000-0  27537-2 0  9999,2 52098  53.2195 301.6955 0001472  80.5713 346.1550 15.08791428 19805,6918.029,95.441,540.9119999999998,538.876,0.0
52098.0,STARLINK-3665,PAYLOAD,2022-07-18 14:00:01,15.08812285,0.0001544,53.2194,300.201,72.4625,5.8147,-0.00010707,-1.99e-05,0.0,0 STARLINK-3665,1 52098U 22029L   22199.58334491 -.00001990  00000-0 -10707-3 0  9998,2 52098  53.2194 300.2010 0001544  72.4625   5.8147 15.08812285  1305,6917.965,95.439,540.898,538.762,0.0
52098.0,STARLINK-3665,PAYLOAD,2022-07-18 22:00:00,15.08834438,0.0001463,53.2192,298.7041,72.5446,17.2893,-0.0015210999999999,-0.00024411,0.0,0 STARLINK-3665,1 52098U 22029L   22199.91667824 -.00024411  00000-0 -15211-2 0  9991,2 52098  53.2192 298.7041 0001463  72.5446  17.2893 15.08834438 19904,6917.897,95.438,540.774,538.75,0.0
52098.0,STARLINK-3665,PAYLOAD,2022-07-19 14:00:01,15.0884184,0.0001491,53.2191,295.7122,72.2832,40.7338,0.0003969,6.035e-05,0.0,0 STARLINK-3665,1 52098U 22029L   22200.58334491  .00006035  00000-0  39690-3 0  9996,2 52098  53.2191 295.7122 0001491  72.2832  40.7338 15.08841840 20000,6917.875,95.437,540.771,538.7080000000002,0.0
52098.0,STARLINK-3665,PAYLOAD,2022-07-19 22:00:00,15.08852705,0.0001465,53.2179,294.2118,70.7853,53.8274,2.2809e-05,7.5e-07,0.0,0 STARLINK-3665,1 52098U 22029L   22200.91667824  .00000075  00000-0  22809-4 0  9995,2 52098  53.2179 294.2118 0001465  70.7853  53.8274 15.08852705  1300,6917.842,95.437,540.72,538.693,0.0
52098.0,STARLINK-3665,PAYLOAD,2022-07-20 14:00:01,15.08873968,0.000149,53.2187,291.2231,72.9196,74.9548,-0.0022775,-0.00036385,0.0,0 STARLINK-3665,1 52098U 22029L   22201.58334491 -.00036385  00000-0 -22775-2 0  9995,2 52098  53.2187 291.2231 0001490  72.9196  74.9548 15.08873968 20150,6917.776999999999,95.435,540.672,538.611,0.0
52098.0,STARLINK-3665,PAYLOAD,2022-07-20 22:00:01,15.08852785,0.0001249,53.2183,289.7256,74.2106,85.3426,-0.0046489,-0.00073545,0.0,0 STARLINK-3665,1 52098U 22029L   22201.91668981 -.00073545  00000-0 -46489-2 0  9993,2 52098  53.2183 289.7256 0001249  74.2106  85.3426 15.08852785  1304,6917.840999999999,95.437,540.57,538.842,0.0
52098.0,STARLINK-3665,PAYLOAD,2022-07-21 14:00:01,15.08816318,0.0001531999999999,53.2183,286.7342,73.6882,109.0067,0.001172,0.00018401,0.0,0 STARLINK-3665,1 52098U 22029L   22202.58335648  .00018401  00000-0  11720-2 0  9996,2 52098  53.2183 286.7342 0001532  73.6882 109.0067 15.08816318  1303,6917.953,95.439,540.878,538.758,0.0
52098.0,STARLINK-3665,PAYLOAD,2022-07-21 22:00:00,15.08848384,0.0001450999999999,53.2181,285.2367,76.3776,117.8298,-0.0014708,-0.00023625,0.0,0 STARLINK-3665,1 52098U 22029L   22202.91667824 -.00023625  00000-0 -14708-2 0  9992,2 52098  53.2181 285.2367 0001451  76.3776 117.8298 15.08848384  1305,6917.855,95.437,540.724,538.716,0.0
52098.0,STARLINK-3665,PAYLOAD,2022-07-22 06:00:00,15.08848093,0.0001491,53.2183,283.7399,82.2041,123.5972,0.00093949,0.00014699,0.0,0 STARLINK-3665,1 52098U 22029L   22203.25001157  .00014699  00000-0  93949-3 0  9995,2 52098  53.2183 283.7399 0001491  82.2041 123.5972 15.08848093  1300,6917.856,95.437,540.752,538.689,0.0
52098.0,STARLINK-3665,PAYLOAD,2022-07-22 22:00:00,15.08855086,0.0001367,53.2182,280.7475,73.2995,155.7255,-0.0020778,-0.00033217,0.0,0 STARLINK-3665,1 52098U 22029L   22203.91667824 -.00033217  00000-0 -20778-2 0  9995,2 52098  53.2182 280.7475 0001367  73.2995 155.7255 15.08855086 20505,6917.834,95.437,540.645,538.754,0.0
52098.0,STARLINK-3665,PAYLOAD,2022-07-23 14:00:01,15.08803094,0.0001575,53.2184,277.7561,69.3834,182.897,0.0021879,0.00034669,0.0,0 STARLINK-3665,1 52098U 22029L   22204.58335648  .00034669  00000-0  21879-2 0  9998,2 52098  53.2184 277.7561 0001575  69.3834 182.8970 15.08803094  1302,6917.993,95.44,540.948,538.769,0.0
52098.0,STARLINK-3665,PAYLOAD,2022-07-23 22:00:00,15.08841212,0.0001463,53.2185,276.2585,72.6738,191.1156,-0.00090689,-0.00014693,0.0,0 STARLINK-3665,1 52098U 22029L   22204.91667824 -.00014693  00000-0 -90689-3 0  9992,2 52098  53.2185 276.2585 0001463  72.6738 191.1156 15.08841212 20651,6917.877,95.437,540.754,538.73,0.0
52098.0,STARLINK-3665,PAYLOAD,2022-07-24 14:00:01,15.08833754,0.0001547,53.2188,273.2674,67.3654,219.6032,-9.7868e-05,-1.845e-05,0.0,0 STARLINK-3665,1 52098U 22029L   22205.58334491 -.00001845  00000-0 -97868-4 0  9999,2 52098  53.2188 273.2674 0001547  67.3654 219.6032 15.08833754  1303,6917.899,95.438,540.835,538.694,0.0
52098.0,STARLINK-3665,PAYLOAD,2022-07-24 22:00:00,15.08829724,0.0001359,53.2189,271.7697,70.3924,228.1671,-0.0012307,-0.00019815,0.0,0 STARLINK-3665,1 52098U 22029L   22205.91667824 -.00019815  00000-0 -12307-2 0  9994,2 52098  53.2189 271.7697 0001359  70.3924 228.1671 15.08829724  1303,6917.9119999999975,95.438,540.717,538.837,0.0
52098.0,STARLINK-3665,PAYLOAD,2022-07-25 14:00:01,15.08806907,0.0001483,53.2189,268.7788,64.8457,256.8658,0.0025371,0.00040284,0.0,0 STARLINK-3665,1 52098U 22029L   22206.58334491  .00040284  00000-0  25371-2 0  9996,2 52098  53.2189 268.7788 0001483  64.8457 256.8658 15.08806907  1308,6917.982,95.44,540.872,538.821,0.0
